[{"OBJECT_NAME":"FLOCK 4G-7","OBJECT_ID":"2025-009R","EPOCH":"2026-03-09T19:11:56.638176","MEAN_MOTION":15.27141471,"ECCENTRICITY":0.00013963,"INCLINATION":97.3984,"RA_OF_ASC_NODE":150.827,"ARG_OF_PERICENTER":336.9783,"MEAN_ANOMALY":23.1393,"EPHEMERIS_TYPE":0,"CLASSIFICATION_TYPE":"U","NORAD_CAT_ID":62624,"ELEMENT_SET_NO":999,"REV_AT_EPOCH":6372,"BSTAR":0.0004316781,"MEAN_MOTION_DOT":0.00011422,"MEAN_MOTION_DDOT":0},{"OBJECT_NAME":"OBJECT L","OBJECT_ID":"2024-024L","EPOCH":"2026-03-09T22:36:05.522976","MEAN_MOTION":15.29373491,"ECCENTRICITY":0.00073185,"INCLINATION":97.3169,"RA_OF_ASC_NODE":137.7038,"ARG_OF_PERICENTER":167.6369,"MEAN_ANOMALY":192.5052,"EPHEMERIS_TYPE":0,"CLASSIFICATION_TYPE":"U","NORAD_CAT_ID":58927,"ELEMENT_SET_NO":999,"REV_AT_EPOCH":9318,"BSTAR":0.00043092344,"MEAN_MOTION_DOT":0.00012217,"MEAN_MOTION_DDOT":0}]
